[{"OBJECT_NAME":"JINJUSAT-1B","OBJECT_ID":"2025-052A","EPOCH":"2026-03-09T15:55:38.242848","MEAN_MOTION":15.30194857,"ECCENTRICITY":0.00055504,"INCLINATION":97.4113,"RA_OF_ASC_NODE":325.4613,"ARG_OF_PERICENTER":82.193,"MEAN_ANOMALY":277.9941,"EPHEMERIS_TYPE":0,"CLASSIFICATION_TYPE":"U","NORAD_CAT_ID":63210,"ELEMENT_SET_NO":999,"REV_AT_EPOCH":5486,"BSTAR":0.00068430401,"MEAN_MOTION_DOT":0.00019955,"MEAN_MOTION_DDOT":0},{"OBJECT_NAME":"STARLINK-33690","OBJECT_ID":"2025-065H","EPOCH":"2026-03-09T09:56:58.059168","MEAN_MOTION":15.27613266,"ECCENTRICITY":0.00042388,"INCLINATION":43.0027,"RA_OF_ASC_NODE":104.679,"ARG_OF_PERICENTER":255.1959,"MEAN_ANOMALY":104.8424,"EPHEMERIS_TYPE":0,"CLASSIFICATION_TYPE":"U","NORAD_CAT_ID":63406,"ELEMENT_SET_NO":999,"REV_AT_EPOCH":5284,"BSTAR":0.0012608006,"MEAN_MOTION_DOT":0.00034637,"MEAN_MOTION_DDOT":0}]
